STARLINK-1224
1 15186C 20012J   21326.15901866  .00008701  00000-0  58289-3 0  3264
2 15186  53.0540 248.0278 0001873  65.6306  34.5246 15.06393392    15
